GLOBALSTAR M069         
1 31573U 07020C   26180.54852189 -.00000065  00000+0  25532-3 0  9998
2 31573  52.0003 217.1392 0002056 175.2418 339.5287 12.23471662880318
GLOBALSTAR M072         
1 31574U 07020D   26179.88295733 -.00000078  00000+0  79441-4 0  9993
2 31574  51.9938  69.1082 0001533   1.0008  80.6918 11.91658427876371
GLOBALSTAR M066         
1 32265U 07048C   26179.95602956 -.00000097  00000+0 -17793-4 0  9992
2 32265  51.9600  24.1274 0005653  68.8011  78.4927 12.30387133861670
GLOBALSTAR M079         
1 37188U 10054A   26179.85892803 -.00000095  00000+0  49522-4 0  9995
2 37188  52.0045  73.1397 0000952  49.1251  27.6314 12.62266291724028
GLOBALSTAR M074         
1 37189U 10054B   26179.71884433 -.00000061  00000+0  23685-3 0  9995
2 37189  52.0023  72.8292 0000758  69.8334 330.2849 12.62261912724616
GLOBALSTAR M076         
1 37190U 10054C   26179.97682073 -.00000101  00000+0  15004-4 0  9993
2 37190  52.0032  72.2480 0000968  64.5382 308.3304 12.62261901724361
GLOBALSTAR M077         
1 37191U 10054D   26179.93003264 -.00000087  00000+0 -16897-3 0  9993
2 37191  51.9931 149.4896 0002541 194.0728 198.1863 11.67547998722515
GLOBALSTAR M075         
1 37192U 10054E   26180.57919593 -.00000109  00000+0 -31192-4 0  9998
2 37192  51.9942 112.4615 0000462  39.5059 132.1482 12.62267458723508
GLOBALSTAR M073         
1 37193U 10054F   26180.54659815 -.00000085  00000+0  10347-3 0  9994
2 37193  52.0076  26.6710 0001088  71.6306 310.2389 12.62266729725493
GLOBALSTAR M083         
1 37739U 11033A   26180.57115388 -.00000087  00000+0  90892-4 0  9999
2 37739  51.9880 334.8078 0000953  86.6234 348.2617 12.62263698694512
GLOBALSTAR M088         
1 37740U 11033B   26180.56078676 -.00000066  00000+0  21107-3 0  9997
2 37740  52.0199 241.2988 0000418 145.2274   1.0243 12.62269103690053
GLOBALSTAR M091         
1 37741U 11033C   26180.40696375 -.00000086  00000+0  10026-3 0  9993
2 37741  51.9967 204.7132 0000014 283.6171 184.1206 12.62264146690824
GLOBALSTAR M085         
1 37742U 11033D   26179.89901786 -.00000107  00000+0 -18009-4 0  9995
2 37742  52.0102 157.5605 0000387   2.0228  16.4708 12.62264253691270
GLOBALSTAR M081         
1 37743U 11033E   26180.00970848 -.00000108  00000+0 -24652-4 0  9998
2 37743  51.9932 159.6464 0000281  35.9177   5.5411 12.62265307691436
GLOBALSTAR M089         
1 37744U 11033F   26179.97782090 -.00000118  00000+0 -79876-4 0  9992
2 37744  51.9922 113.9000 0000520  79.1060 358.3495 12.62267387692276
GLOBALSTAR M084         
1 38040U 11080A   26179.73935846 -.00000104  00000+0 -10868-5 0  9999
2 38040  52.0027 342.1133 0001093 104.6258 268.6113 12.62267610670226
GLOBALSTAR M080         
1 38041U 11080B   26179.71069094 -.00000100  00000+0  19310-4 0  9996
2 38041  52.0083 343.9228 0000428  77.3973 295.6197 12.62269681670349
GLOBALSTAR M082         
1 38042U 11080C   26180.53298050 -.00000095  00000+0  48471-4 0  9998
2 38042  52.0085 296.9227 0000442 108.3330 332.8969 12.62263737671153
GLOBALSTAR M092         
1 38043U 11080D   26180.57205807 -.00000085  00000+0  10481-3 0  9999
2 38043  52.0098  27.2008 0000840  81.5771 296.4788 12.62267218669613
GLOBALSTAR M090         
1 38044U 11080E   26180.47974328 -.00000095  00000+0  46696-4 0  9999
2 38044  52.0132 291.0444 0000592 102.0418 336.2598 12.62252645671263
GLOBALSTAR M086         
1 38045U 11080F   26180.50203720 -.00000070  00000+0  18854-3 0  9992
2 38045  51.9905 290.8861 0001683  88.1586 353.4794 12.62287353671210
GLOBALSTAR M097         
1 39072U 13005A   26180.35729039 -.00000080  00000+0  13145-3 0  9990
2 39072  52.0015 206.2901 0000127  74.5826 285.5055 12.62271289618441
GLOBALSTAR M093         
1 39073U 13005B   26180.33045502 -.00000087  00000+0  95741-4 0  9995
2 39073  52.0073 199.7221 0000266  36.1478 323.9407 12.62266159618390
GLOBALSTAR M094         
1 39074U 13005C   26179.85521598 -.00000126  00000+0 -12474-3 0  9991
2 39074  51.9949 115.2727 0000693  31.5119 328.5789 12.62268461619944
GLOBALSTAR M096         
1 39075U 13005D   26180.26464626 -.00000115  00000+0 -61393-4 0  9990
2 39075  52.0047 162.8374 0000335   7.2393 352.8478 12.62265682618912
GLOBALSTAR M078         
1 39076U 13005E   26180.47527144  .00000017  00000+0  67564-3 0  9993
2 39076  51.9862 246.1910 0000519 283.3604  76.7205 12.62260208617563
GLOBALSTAR M095         
1 39077U 13005F   26180.34361791 -.00000069  00000+0  19500-3 0  9999
2 39077  52.0068 244.2131 0000052  30.4311 329.6559 12.62263721617404
GLOBALSTAR M087         
1 52888U 22064A   26179.96088041 -.00000091  00000+0  70328-4 0  9990
2 52888  52.0010  26.6084 0000906  61.9488 298.1470 12.62269270192626
